{
  "links" : {
    "next" : "https://api.nasa.gov/neo/rest/v1/neo/browse?page=27&size=20&api_key=jqAGvNAwUIBu4fl9FSOjdm3V4F7hIglRzI6pdX9d",
    "prev" : "https://api.nasa.gov/neo/rest/v1/neo/browse?page=25&size=20&api_key=jqAGvNAwUIBu4fl9FSOjdm3V4F7hIglRzI6pdX9d",
    "self" : "https://api.nasa.gov/neo/rest/v1/neo/browse?page=26&size=20&api_key=jqAGvNAwUIBu4fl9FSOjdm3V4F7hIglRzI6pdX9d"
  },
  "page" : {
    "size" : 20,
    "total_elements" : 20750,
    "total_pages" : 1038,
    "number" : 26
  },
  "near_earth_objects" : [ {
    "links" : {
      "self" : "https://api.nasa.gov/neo/rest/v1/neo/3330160?api_key=jqAGvNAwUIBu4fl9FSOjdm3V4F7hIglRzI6pdX9d"
    },
    "neo_reference_id" : "3330160",
    "name" : "(2006 HA6)",
    "designation" : "2006 HA6",
    "nasa_jpl_url" : "http://ssd.jpl.nasa.gov/sbdb.cgi?sstr=3330160",
    "absolute_magnitude_h" : 20.2,
    "estimated_diameter" : {
      "kilometers" : {
        "estimated_diameter_min" : 0.2424124811,
        "estimated_diameter_max" : 0.5420507863
      },
      "meters" : {
        "estimated_diameter_min" : 242.4124811008,
        "estimated_diameter_max" : 542.0507863358
      },
      "miles" : {
        "estimated_diameter_min" : 0.1506280858,
        "estimated_diameter_max" : 0.3368146392
      },
      "feet" : {
        "estimated_diameter_min" : 795.3165644948,
        "estimated_diameter_max" : 1778.3819018419
      }
    },
    "is_potentially_hazardous_asteroid" : false,
    "close_approach_data" : [ {
      "close_approach_date" : "2006-03-28",
      "epoch_date_close_approach" : 1143532800000,
      "relative_velocity" : {
        "kilometers_per_second" : "13.2705905067",
        "kilometers_per_hour" : "47774.1258240577",
        "miles_per_hour" : "29684.9839043985"
      },
      "miss_distance" : {
        "astronomical" : "0.2426234123",
        "lunar" : "94.3805084229",
        "kilometers" : "36295948",
        "miles" : "22553256"
      },
      "orbiting_body" : "Earth"
    } ],
    "orbital_data" : {
      "orbit_id" : "8",
      "orbit_determination_date" : "2017-04-06 09:08:47",
      "first_observation_date" : "2006-04-20",
      "last_observation_date" : "2006-05-04",
      "data_arc_in_days" : 14,
      "observations_used" : 33,
      "orbit_uncertainty" : "9",
      "minimum_orbit_intersection" : ".216275",
      "jupiter_tisserand_invariant" : "2.718",
      "epoch_osculation" : "2453849.5",
      "eccentricity" : ".6361672046951383",
      "semi_major_axis" : "3.273605445133005",
      "inclination" : "22.75119295432676",
      "ascending_node_longitude" : "17.02742860136479",
      "orbital_period" : "2163.405495098664",
      "perihelion_distance" : "1.191045019827957",
      "perihelion_argument" : "157.1034155582047",
      "aphelion_distance" : "5.356165870438052",
      "perihelion_time" : "2453803.694553514164",
      "mean_anomaly" : "7.622223745044578",
      "mean_motion" : ".1664043106184224",
      "equinox" : "J2000",
      "orbit_class" : {
        "orbit_class_type" : "AMO",
        "orbit_class_range" : "1.017 AU < q (perihelion) < 1.3 AU",
        "orbit_class_description" : "Near-Earth asteroid orbits similar to that of 1221 Amor"
      }
    },
    "is_sentry_object" : false
  }, {
    "links" : {
      "self" : "https://api.nasa.gov/neo/rest/v1/neo/3330682?api_key=jqAGvNAwUIBu4fl9FSOjdm3V4F7hIglRzI6pdX9d"
    },
    "neo_reference_id" : "3330682",
    "name" : "(2006 HS30)",
    "designation" : "2006 HS30",
    "nasa_jpl_url" : "http://ssd.jpl.nasa.gov/sbdb.cgi?sstr=3330682",
    "absolute_magnitude_h" : 28.0,
    "estimated_diameter" : {
      "kilometers" : {
        "estimated_diameter_min" : 0.0066765941,
        "estimated_diameter_max" : 0.0149293183
      },
      "meters" : {
        "estimated_diameter_min" : 6.676594135,
        "estimated_diameter_max" : 14.9293183439
      },
      "miles" : {
        "estimated_diameter_min" : 0.004148642,
        "estimated_diameter_max" : 0.0092766455
      },
      "feet" : {
        "estimated_diameter_min" : 21.9048371017,
        "estimated_diameter_max" : 48.9807047955
      }
    },
    "is_potentially_hazardous_asteroid" : false,
    "close_approach_data" : [ {
      "close_approach_date" : "1937-03-15",
      "epoch_date_close_approach" : -1035043200000,
      "relative_velocity" : {
        "kilometers_per_second" : "18.6442403174",
        "kilometers_per_hour" : "67119.2651427098",
        "miles_per_hour" : "41705.3011660355"
      },
      "miss_distance" : {
        "astronomical" : "0.3249930197",
        "lunar" : "126.4222793579",
        "kilometers" : "48618264",
        "miles" : "30209988"
      },
      "orbiting_body" : "Earth"
    }, {
      "close_approach_date" : "2006-04-26",
      "epoch_date_close_approach" : 1146034800000,
      "relative_velocity" : {
        "kilometers_per_second" : "8.2498408589",
        "kilometers_per_hour" : "29699.427091933",
        "miles_per_hour" : "18454.0690172069"
      },
      "miss_distance" : {
        "astronomical" : "0.0144505894",
        "lunar" : "5.6212792397",
        "kilometers" : "2161777.5",
        "miles" : "1343266.25"
      },
      "orbiting_body" : "Earth"
    } ],
    "orbital_data" : {
      "orbit_id" : "6",
      "orbit_determination_date" : "2017-04-06 09:08:45",
      "first_observation_date" : "2006-04-24",
      "last_observation_date" : "2006-04-26",
      "data_arc_in_days" : 2,
      "observations_used" : 36,
      "orbit_uncertainty" : "8",
      "minimum_orbit_intersection" : ".0100789",
      "jupiter_tisserand_invariant" : "3.295",
      "epoch_osculation" : "2453850.5",
      "eccentricity" : ".5753247827299853",
      "semi_major_axis" : "2.375916145845011",
      "inclination" : "2.324082220355629",
      "ascending_node_longitude" : "208.4934773595739",
      "orbital_period" : "1337.657996647169",
      "perihelion_distance" : "1.008992705452066",
      "perihelion_argument" : "20.39238442736804",
      "aphelion_distance" : "3.742839586237957",
      "perihelion_time" : "2453862.245757572095",
      "mean_anomaly" : "356.8388984803643",
      "mean_motion" : ".2691270869701656",
      "equinox" : "J2000",
      "orbit_class" : {
        "orbit_class_type" : "APO",
        "orbit_class_range" : "a (semi-major axis) > 1.0 AU; q (perihelion) < 1.017 AU",
        "orbit_class_description" : "Near-Earth asteroid orbits which cross the Earth’s orbit similar to that of 1862 Apollo"
      }
    },
    "is_sentry_object" : false
  }, {
    "links" : {
      "self" : "https://api.nasa.gov/neo/rest/v1/neo/3330685?api_key=jqAGvNAwUIBu4fl9FSOjdm3V4F7hIglRzI6pdX9d"
    },
    "neo_reference_id" : "3330685",
    "name" : "(2006 HV30)",
    "designation" : "2006 HV30",
    "nasa_jpl_url" : "http://ssd.jpl.nasa.gov/sbdb.cgi?sstr=3330685",
    "absolute_magnitude_h" : 22.7,
    "estimated_diameter" : {
      "kilometers" : {
        "estimated_diameter_min" : 0.0766575574,
        "estimated_diameter_max" : 0.1714115092
      },
      "meters" : {
        "estimated_diameter_min" : 76.6575573531,
        "estimated_diameter_max" : 171.4115092306
      },
      "miles" : {
        "estimated_diameter_min" : 0.0476327831,
        "estimated_diameter_max" : 0.1065101409
      },
      "feet" : {
        "estimated_diameter_min" : 251.5011804664,
        "estimated_diameter_max" : 562.3737359442
      }
    },
    "is_potentially_hazardous_asteroid" : false,
    "close_approach_data" : [ {
      "close_approach_date" : "2006-04-21",
      "epoch_date_close_approach" : 1145602800000,
      "relative_velocity" : {
        "kilometers_per_second" : "19.8127406647",
        "kilometers_per_hour" : "71325.866393028",
        "miles_per_hour" : "44319.1195929345"
      },
      "miss_distance" : {
        "astronomical" : "0.1433988914",
        "lunar" : "55.782169342",
        "kilometers" : "21452170",
        "miles" : "13329760"
      },
      "orbiting_body" : "Earth"
    } ],
    "orbital_data" : {
      "orbit_id" : "7",
      "orbit_determination_date" : "2017-04-06 09:08:44",
      "first_observation_date" : "2006-04-25",
      "last_observation_date" : "2006-04-29",
      "data_arc_in_days" : 4,
      "observations_used" : 30,
      "orbit_uncertainty" : "9",
      "minimum_orbit_intersection" : ".143209",
      "jupiter_tisserand_invariant" : "4.104",
      "epoch_osculation" : "2453853.5",
      "eccentricity" : ".3723801510153232",
      "semi_major_axis" : "1.59532043811881",
      "inclination" : "34.92020903690339",
      "ascending_node_longitude" : "206.1167019259485",
      "orbital_period" : "735.9873003285477",
      "perihelion_distance" : "1.001254772454296",
      "perihelion_argument" : "61.17793586527923",
      "aphelion_distance" : "2.189386103783324",
      "perihelion_time" : "2453899.561131498449",
      "mean_anomaly" : "337.4697099636918",
      "mean_motion" : ".4891388748682138",
      "equinox" : "J2000",
      "orbit_class" : {
        "orbit_class_type" : "APO",
        "orbit_class_range" : "a (semi-major axis) > 1.0 AU; q (perihelion) < 1.017 AU",
        "orbit_class_description" : "Near-Earth asteroid orbits which cross the Earth’s orbit similar to that of 1862 Apollo"
      }
    },
    "is_sentry_object" : false
  } ]
}